OBJECT_NAME,OBJECT_ID,EPOCH,MEAN_MOTION,ECCENTRICITY,INCLINATION,RA_OF_ASC_NODE,ARG_OF_PERICENTER,MEAN_ANOMALY,EPHEMERIS_TYPE,CLASSIFICATION_TYPE,NORAD_CAT_ID,ELEMENT_SET_NO,REV_AT_EPOCH,BSTAR,MEAN_MOTION_DOT,MEAN_MOTION_DDOT
DUBAISAT-1,2009-041B,2026-06-27T06:19:53.102784,14.75138987,.00112443,98.0061,311.4116,44.6033,315.6079,0,U,35682,999,90658,.14051906E-3,.898E-5,0
OCEANSAT-2,2009-051A,2026-06-27T06:41:50.726976,13.99661205,.00160402,98.2319,164.1234,205.8127,154.2241,0,U,35931,999,88074,-.13333955E-3,-.233E-5,0
WORLDVIEW-2 (WV-2),2009-055A,2026-06-27T06:05:25.622592,14.37902179,.00043462,98.4764,251.5649,176.4842,183.6377,0,U,35946,999,87709,.69851507E-4,.167E-5,0
SMOS,2009-059A,2026-06-27T06:23:34.832832,14.39777775,.00013157,98.4425,5.4536,88.4305,271.7033,0,U,36036,999,87490,.95494477E-4,.256E-5,0
YAOGAN-7,2009-069A,2026-06-27T05:50:52.937664,14.78019451,.00248597,98.0061,64.0481,10.2909,349.8805,0,U,36110,999,89111,.75809131E-4,.497E-5,0
TANDEM-X,2010-030A,2026-06-26T14:39:40.676544,15.19151603,.00017816,97.4451,185.1838,93.2192,266.9247,0,U,36605,999,88807,.16556648E-4,.281E-5,0
CARTOSAT-2B,2010-035A,2026-06-27T06:53:27.331296,14.78672258,.00120221,97.9954,228.7726,151.6087,208.5782,0,U,36795,999,86134,.63900192E-4,.416E-5,0
YAOGAN-10,2010-038A,2026-06-27T07:29:01.298112,14.85381458,.00017772,97.8978,201.6357,85.4490,285.7634,0,U,36834,999,85871,.27372559E-3,.2302E-4,0
COSMO-SKYMED 4,2010-060A,2026-06-27T07:12:24.969600,14.82152031,.00014859,97.8889,1.7536,84.8424,275.2959,0,U,37216,999,84606,.14525628E-4,.63E-6,0
RESOURCESAT-2,2011-015A,2026-06-27T05:22:45.978528,14.21602121,.00105503,98.7641,245.5965,223.8066,136.2275,0,U,37387,999,78760,.60782037E-4,.89E-6,0
HAIYANG-2A,2011-043A,2026-06-27T07:17:39.084576,13.74025583,.00049535,99.3394,180.7540,70.6001,289.5683,0,U,37781,999,74804,.22301155E-3,.166E-5,0
RASAT,2011-044D,2026-06-27T06:26:30.820128,14.68175943,.00209731,98.0578,269.5114,156.8420,287.5300,0,U,37791,999,79466,.12103597E-3,.65E-5,0
SRMSAT,2011-058D,2026-06-27T04:57:06.645024,14.11577536,.0011727,19.9735,358.8265,314.5587,200.6524,0,U,37841,999,75923,.58206686E-4,.372E-5,0
PLEIADES 1A,2011-076F,2026-06-27T06:49:34.220640,14.58536987,.00017744,98.1978,253.2518,90.3149,1.1997,0,U,38012,999,77346,.78268809E-4,.318E-5,0
ZIYUAN 1-02C (ZY 1-02C),2011-079A,2026-06-27T07:22:55.495200,14.38222444,.00051321,98.4073,245.4047,280.5826,167.8080,0,U,38038,999,76066,.14034646E-3,.383E-5,0
ARIRANG-3 (KOMPSAT-3),2012-025B,2026-06-27T07:08:04.255008,14.62214658,.00068156,98.1174,135.5829,84.2337,275.9641,0,U,38338,999,75282,.97050773E-4,.442E-5,0
EXACTVIEW-1 (ADS-1B),2012-039C,2026-06-27T06:45:34.086528,14.24987388,.00116319,98.9787,295.9003,138.7054,221.5006,0,U,38709,999,72414,.62185584E-4,.99E-6,0
SPOT 6,2012-047A,2026-06-27T06:46:29.476704,14.58527918,.00013348,98.2120,245.4733,75.4606,284.6741,0,U,38755,999,73452,.4955841E-4,.184E-5,0
PLEIADES 1B,2012-068A,2026-06-27T05:34:50.724192,14.58566102,.00017291,98.1948,253.1459,86.4148,273.7249,0,U,39019,999,72231,.59953753E-4,.233E-5,0
GOKTURK 2,2012-073A,2026-06-27T07:41:33.724608,14.75553216,.00012103,97.6819,15.2441,58.3421,301.7907,0,U,39030,999,72600,.12212935E-3,.785E-5,0
LANDSAT 8,2013-008A,2026-06-27T06:09:29.555712,14.57100826,.0001361,98.2299,248.2721,93.7248,266.4106,0,U,39084,999,69936,.78289368E-4,.307E-5,0
SARAL,2013-009A,2026-06-27T05:40:06.413376,14.32858269,.00007339,98.5557,4.6761,228.1028,132.0093,0,U,39086,999,69704,.46186882E-4,.82E-6,0
GAOFEN-1,2013-018A,2026-06-27T07:05:59.277408,14.76547322,.00159112,97.9095,250.1585,230.9266,129.0530,0,U,39150,999,70973,.10953003E-3,.714E-5,0
VNREDSAT 1,2013-021B,2026-06-27T06:24:06.164928,14.64867139,.00017317,97.9081,231.2963,84.3736,275.7665,0,U,39160,999,70176,.1360381E-3,.681E-5,0
ARIRANG-5 (KOMPSAT-5),2013-042A,2026-06-27T06:36:40.149216,15.04514372,.00051046,97.6189,4.8333,99.1857,260.9947,0,U,39227,999,70537,.12721525E-3,.1721E-4,0
SKYSAT-A,2013-066C,2026-06-27T02:40:40.083456,15.13025317,.00196327,97.3810,227.1924,280.5528,79.3492,0,U,39418,999,68998,.15812852E-3,.2741E-4,0
DUBAISAT-2,2013-066D,2026-06-27T06:35:13.403616,15.10251987,.00112821,97.4561,168.1547,8.9418,351.2011,0,U,39419,999,68791,.16724991E-3,.2677E-4,0
GPM-CORE,2014-009C,2026-06-27T05:52:22.557792,15.44779411,.00114455,64.9722,274.4381,255.5889,104.3982,0,U,39574,999,69936,.24683156E-3,.11405E-3,0
SENTINEL-1A,2014-016A,2026-06-27T07:26:53.536704,14.59201125,.00013804,98.1779,185.6952,84.8833,275.2524,0,U,39634,999,65149,.48334332E-4,.182E-5,0
KAZEOSAT 1,2014-024A,2026-06-27T06:58:28.314336,14.42083558,.00012325,98.3208,250.4868,75.4021,284.7306,0,U,39731,999,64001,.37316176E-4,.8E-6,0
