DUBAISAT-1              
1 35682U 09041B   26178.26380906  .00000898  00000+0  14052-3 0  9995
2 35682  98.0061 311.4116 0011244  44.6033 315.6079 14.75138987906581
OCEANSAT-2              
1 35931U 09051A   26178.27905934 -.00000233  00000+0 -13334-3 0  9995
2 35931  98.2319 164.1234 0016040 205.8127 154.2241 13.99661205880740
WORLDVIEW-2 (WV-2)      
1 35946U 09055A   26178.25376878  .00000167  00000+0  69852-4 0  9993
2 35946  98.4764 251.5649 0004346 176.4842 183.6377 14.37902179877097
SMOS                    
1 36036U 09059A   26178.26637538  .00000256  00000+0  95494-4 0  9992
2 36036  98.4425   5.4536 0001315  88.4305 271.7033 14.39777775874901
YAOGAN-7                
1 36110U 09069A   26178.24366826  .00000497  00000+0  75809-4 0  9998
2 36110  98.0061  64.0481 0024859  10.2909 349.8805 14.78019451891116
TANDEM-X                
1 36605U 10030A   26177.61088746  .00000281  00000+0  16557-4 0  9995
2 36605  97.4451 185.1838 0001781  93.2192 266.9247 15.19151603888078
CARTOSAT-2B             
1 36795U 10035A   26178.28712189  .00000416  00000+0  63900-4 0  9993
2 36795  97.9954 228.7726 0012022 151.6087 208.5782 14.78672258861348
YAOGAN-10               
1 36834U 10038A   26178.31182058  .00002302  00000+0  27373-3 0  9999
2 36834  97.8978 201.6357 0001777  85.4490 285.7634 14.85381458858711
COSMO-SKYMED 4          
1 37216U 10060A   26178.30028900  .00000063  00000+0  14526-4 0  9992
2 37216  97.8889   1.7536 0001485  84.8424 275.2959 14.82152031846060
RESOURCESAT-2           
1 37387U 11015A   26178.22414327  .00000089  00000+0  60782-4 0  9998
2 37387  98.7641 245.5965 0010550 223.8066 136.2275 14.21602121787603
HAIYANG-2A              
1 37781U 11043A   26178.30392459  .00000166  00000+0  22301-3 0  9997
2 37781  99.3394 180.7540 0004953  70.6001 289.5683 13.74025583748047
RASAT                   
1 37791U 11044D   26178.26841227  .00000650  00000+0  12104-3 0  9994
2 37791  98.0578 269.5114 0020973 156.8420 287.5300 14.68175943794666
SRMSAT                  
1 37841U 11058D   26178.20632691  .00000372  00000+0  58207-4 0  9998
2 37841  19.9735 358.8265 0011727 314.5587 200.6524 14.11577536759232
PLEIADES 1A             
1 38012U 11076F   26178.28442385  .00000318  00000+0  78269-4 0  9996
2 38012  98.1978 253.2518 0001774  90.3149   1.1997 14.58536987773469
ZIYUAN 1-02C (ZY 1-02C) 
1 38038U 11079A   26178.30758675  .00000383  00000+0  14035-3 0  9994
2 38038  98.4073 245.4047 0005132 280.5826 167.8080 14.38222444760662
ARIRANG-3 (KOMPSAT-3)   
1 38338U 12025B   26178.29727147  .00000442  00000+0  97051-4 0  9993
2 38338  98.1174 135.5829 0006815  84.2337 275.9641 14.62214658752824
EXACTVIEW-1 (ADS-1B)    
1 38709U 12039C   26178.28164452  .00000099  00000+0  62186-4 0  9992
2 38709  98.9787 295.9003 0011631 138.7054 221.5006 14.24987388724143
SPOT 6                  
1 38755U 12047A   26178.28228561  .00000184  00000+0  49558-4 0  9997
2 38755  98.2120 245.4733 0001334  75.4606 284.6741 14.58527918734522
PLEIADES 1B             
1 39019U 12068A   26178.23253153  .00000233  00000+0  59954-4 0  9990
2 39019  98.1948 253.1459 0001729  86.4148 273.7249 14.58566102722319
GOKTURK 2               
1 39030U 12073A   26178.32052922  .00000785  00000+0  12213-3 0  9998
2 39030  97.6819  15.2441 0001210  58.3421 301.7907 14.75553216726002
LANDSAT 8               
1 39084U 13008A   26178.25659208  .00000307  00000+0  78289-4 0  9994
2 39084  98.2299 248.2721 0001361  93.7248 266.4106 14.57100826699367
SARAL                   
1 39086U 13009A   26178.23618534  .00000082  00000+0  46187-4 0  9994
2 39086  98.5557   4.6761 0000733 228.1028 132.0093 14.32858269697049
GAOFEN-1                
1 39150U 13018A   26178.29582497  .00000714  00000+0  10953-3 0  9993
2 39150  97.9095 250.1585 0015911 230.9266 129.0530 14.76547322709737
VNREDSAT 1              
1 39160U 13021B   26178.26673802  .00000681  00000+0  13604-3 0  9995
2 39160  97.9081 231.2963 0001731  84.3736 275.7665 14.64867139701762
ARIRANG-5 (KOMPSAT-5)   
1 39227U 13042A   26178.27546469  .00001721  00000+0  12722-3 0  9997
2 39227  97.6189   4.8333 0005104  99.1857 260.9947 15.04514372705376
SKYSAT-A                
1 39418U 13066C   26178.11157504  .00002741  00000+0  15813-3 0  9993
2 39418  97.3810 227.1924 0019632 280.5528  79.3492 15.13025317689985
DUBAISAT-2              
1 39419U 13066D   26178.27446069  .00002677  00000+0  16725-3 0  9999
2 39419  97.4561 168.1547 0011282   8.9418 351.2011 15.10251987687919
GPM-CORE                
1 39574U 14009C   26178.24470553  .00011405  00000+0  24683-3 0  9992
2 39574  64.9722 274.4381 0011445 255.5889 104.3982 15.44779411699369
SENTINEL-1A             
1 39634U 14016A   26178.31034186  .00000182  00000+0  48334-4 0  9993
2 39634  98.1779 185.6952 0001380  84.8833 275.2524 14.59201125651492
KAZEOSAT 1              
1 39731U 14024A   26178.29060549  .00000080  00000+0  37316-4 0  9994
2 39731  98.3208 250.4868 0001232  75.4021 284.7306 14.42083558640016
